OBJECT_NAME,OBJECT_ID,EPOCH,MEAN_MOTION,ECCENTRICITY,INCLINATION,RA_OF_ASC_NODE,ARG_OF_PERICENTER,MEAN_ANOMALY,EPHEMERIS_TYPE,CLASSIFICATION_TYPE,NORAD_CAT_ID,ELEMENT_SET_NO,REV_AT_EPOCH,BSTAR,MEAN_MOTION_DOT,MEAN_MOTION_DDOT
CUTE-1 (CO-55),2003-031E,2026-07-22T00:29:25.515744,14.24354732,.00108651,98.6746,211.1424,85.1990,275.0430,0,U,27844,999,19663,.12598932E-3,.248E-5,0
CUBESAT XI-IV (CO-57),2003-031J,2026-07-21T11:08:22.386336,14.23636890,.00107004,98.6777,210.2780,103.0346,257.2027,0,U,27848,999,19625,.94003799E-4,.171E-5,0
CUBESAT XI-V,2005-043F,2026-07-21T08:59:40.719840,14.72712744,.0015344,98.3024,358.7230,97.2573,263.0378,0,U,28895,999,10678,.15413557E-3,.932E-5,0
CUTE-1.7+APD II (CO-65),2008-021C,2026-07-22T12:16:49.725696,15.09743996,.00069379,97.8297,185.6775,268.2388,91.8046,0,U,32785,999,99052,.30489993E-3,.4854E-4,0
CANX-2,2008-021H,2026-07-22T09:01:22.417824,15.05835328,.00086132,97.8662,183.8480,288.9356,71.0936,0,U,32790,999,99010,.19072114E-3,.2704E-4,0
SEEDS II (CO-66),2008-021J,2026-07-22T10:34:46.546464,15.33845449,.00038326,97.7536,203.0544,141.9870,218.1643,0,U,32791,999,99269,.5978764E-3,.19519E-3,0
SWISSCUBE,2009-051B,2026-07-22T06:23:06.394272,14.62540212,.00080912,98.3999,111.7611,100.3347,259.8766,0,U,35932,999,89428,.15943423E-3,.76E-5,0
BEESAT-1,2009-051C,2026-07-22T11:58:51.130560,14.61769795,.00064513,98.3927,111.5595,110.9506,249.2386,0,U,35933,999,89434,.128333E-3,.591E-5,0
ITUPSAT1,2009-051E,2026-07-22T05:55:42.811392,14.60486031,.0008467,98.4012,110.4576,123.6016,236.5993,0,U,35935,999,89385,.12771202E-3,.571E-5,0
TISAT 1,2010-035E,2026-07-22T07:32:14.506656,15.32930011,.00048339,98.0706,153.0175,106.5546,253.6226,0,U,36799,999,87308,.69641768E-3,.2211E-3,0
STRAND-1,2013-009E,2026-07-22T10:10:02.508096,14.37181962,.00097106,98.3941,22.7940,121.7520,238.4615,0,U,39090,999,70212,.89597277E-4,.224E-5,0
BRITE-AUSTRIA,2013-009F,2026-07-22T10:50:37.540032,14.36554561,.00111215,98.4015,22.0181,130.7038,229.5117,0,U,39091,999,70211,.586095E-4,.13E-5,0
NEE-01 PEGASO,2013-018B,2026-07-22T08:48:08.461440,14.93814372,.00134798,98.1266,348.6916,52.7336,307.5110,0,U,39151,999,71595,.19333217E-3,.1993E-4,0
POPACS 2,2013-055E,2026-07-22T11:02:47.532768,14.92251122,.04141428,80.9905,103.7968,80.5757,284.2013,0,U,39269,999,66847,.38841599E-3,.23697E-3,-.863627E-6
POPACS 3,2013-055F,2026-07-21T22:45:55.106208,14.56772916,.05478787,81.0010,191.4730,324.0661,32.4808,0,U,39270,999,64361,.24503145E-3,.1027E-3,0
ZACUBE-1 (TSHEPISOSAT),2013-066B,2026-07-20T20:47:42.553536,15.01347026,.00440791,97.7999,164.3670,137.0238,223.4444,0,U,39417,999,68578,.14536999E-3,.1847E-4,0
WNISAT-1,2013-066H,2026-07-22T08:19:40.856160,14.58131047,.01641934,97.7245,350.0154,120.9406,240.8049,0,U,39423,999,67185,.16065403E-3,.844E-5,0
TRITON-1,2013-066M,2026-07-22T14:43:12.037728,14.81811910,.00911217,97.8209,112.6092,118.2337,242.8112,0,U,39427,999,67933,.11789851E-3,.944E-5,0
GOMX-1,2013-066Q,2026-07-22T12:35:41.577792,14.69552097,.01276081,97.6470,41.7576,324.5849,34.6932,0,U,39430,999,67510,.96615296E-4,.596E-5,0
CUBEBUG-2 (LO-74),2013-066AA,2026-07-22T07:04:20.987040,14.94001241,.00554484,97.8917,152.4311,271.2491,88.2376,0,U,39440,999,68223,.24278153E-3,.2604E-4,0
NEE-02 KRYSAOR,2013-066AB,2026-07-22T06:35:27.347712,14.86759539,.0064824,97.8896,142.2439,315.7839,43.8206,0,U,39441,999,68141,.18417581E-3,.1643E-4,0
FUNCUBE-1 (AO-73),2013-066AE,2026-07-22T09:12:48.932352,15.09891550,.00381411,97.8301,175.5790,84.3797,276.1779,0,U,39444,999,68497,.47582427E-3,.7775E-4,0
UWE-3,2013-066AG,2026-07-21T20:04:24.811392,14.97233886,.00477658,97.8727,159.1532,201.8178,158.1010,0,U,39446,999,68276,.26824669E-3,.3114E-4,0
BRITE-CA1 (TORONTO),2014-033L,2026-07-22T07:12:48.731328,14.72733175,.0078997,97.9778,331.5896,163.5669,196.8127,0,U,40020,999,64738,.13812017E-3,.873E-5,0
DUCHIFAT-1,2014-033M,2026-07-22T10:16:22.510848,15.72664069,.00037303,98.0416,267.7633,227.4828,132.6119,0,U,40021,999,66127,.11919688E-2,.162629E-2,0
NANOSATC-BR1,2014-033Q,2026-07-22T02:00:44.671104,15.32485208,.00050231,98.0713,238.5904,80.3934,279.7874,0,U,40024,999,65932,.59621354E-3,.18646E-3,0
QB50P1,2014-033R,2026-07-22T11:16:31.936512,15.18744167,.0010553,98.0974,217.1032,103.6108,256.6300,0,U,40025,999,65838,.40483776E-3,.8347E-4,0
QB50P2,2014-033Y,2026-07-20T23:23:06.435456,15.15553719,.00091447,98.0771,200.9707,67.6874,292.5326,0,U,40032,999,65778,.24765819E-3,.4626E-4,0
PERSEUS-M2,2014-033AD,2026-07-22T14:09:46.895040,14.95595168,.00115763,97.9976,154.8572,175.8007,184.3312,0,U,40037,999,65607,.48647162E-4,.479E-5,0
PERSEUS-M1,2014-033AF,2026-07-22T07:01:20.889696,14.95729514,.00114663,97.9652,148.0056,173.4533,186.6839,0,U,40039,999,65588,.71062399E-4,.731E-5,0
